{"type":"FeatureCollection","features":[{"type":"Feature","properties":{"kind":"district","id":"bas-sassandra","name":"Bas-Sassandra"},"geometry":{"type":"Point","coordinates":[-6.6804,5.3589]}},{"type":"Feature","properties":{"kind":"district","id":"denguele","name":"Denguélé"},"geometry":{"type":"Point","coordinates":[-7.3854,9.6386]}},{"type":"Feature","properties":{"kind":"district","id":"abidjan","name":"D.A. Abidjan"},"geometry":{"type":"Point","coordinates":[-4.0754,5.4143]}},{"type":"Feature","properties":{"kind":"district","id":"yamoussoukro","name":"D.A. Yamoussoukro"},"geometry":{"type":"Point","coordinates":[-5.2687,6.8559]}},{"type":"Feature","properties":{"kind":"district","id":"goh-djiboua","name":"Gôh-Djiboua"},"geometry":{"type":"Point","coordinates":[-5.6126,5.959]}},{"type":"Feature","properties":{"kind":"district","id":"lacs","name":"Lacs"},"geometry":{"type":"Point","coordinates":[-4.4451,7.0467]}},{"type":"Feature","properties":{"kind":"district","id":"montagnes","name":"Montagnes"},"geometry":{"type":"Point","coordinates":[-7.6531,6.9476]}},{"type":"Feature","properties":{"kind":"district","id":"sassandra-marahoue","name":"Sassandra-Marahoué"},"geometry":{"type":"Point","coordinates":[-6.3451,7.0541]}},{"type":"Feature","properties":{"kind":"district","id":"savanes","name":"Savanes"},"geometry":{"type":"Point","coordinates":[-5.5572,9.5678]}},{"type":"Feature","properties":{"kind":"district","id":"vallee-du-bandama","name":"Vallée du Bandama"},"geometry":{"type":"Point","coordinates":[-4.9584,8.2609]}},{"type":"Feature","properties":{"kind":"district","id":"woroba","name":"Woroba"},"geometry":{"type":"Point","coordinates":[-6.7475,8.3777]}},{"type":"Feature","properties":{"kind":"district","id":"zanzan","name":"Zanzan"},"geometry":{"type":"Point","coordinates":[-3.3481,8.6726]}},{"type":"Feature","properties":{"kind":"district","id":"lagunes","name":"Lagunes"},"geometry":{"type":"Point","coordinates":[-4.2708,5.8326]}},{"type":"Feature","properties":{"kind":"district","id":"comoe","name":"Comoé"},"geometry":{"type":"Point","coordinates":[-3.3022,6.0916]}},{"type":"Feature","properties":{"kind":"region","id":"agneby-tiassa","name":"Agnéby-Tiassa"},"geometry":{"type":"Point","coordinates":[-4.518,5.9354]}},{"type":"Feature","properties":{"kind":"region","id":"bafing","name":"Bafing"},"geometry":{"type":"Point","coordinates":[-7.6243,8.3891]}},{"type":"Feature","properties":{"kind":"region","id":"bagoue","name":"Bagoué"},"geometry":{"type":"Point","coordinates":[-6.471,9.8612]}},{"type":"Feature","properties":{"kind":"region","id":"belier","name":"Bélier"},"geometry":{"type":"Point","coordinates":[-5.0506,7.2066]}},{"type":"Feature","properties":{"kind":"region","id":"bere","name":"Béré"},"geometry":{"type":"Point","coordinates":[-6.0406,8.3655]}},{"type":"Feature","properties":{"kind":"region","id":"bounkani","name":"Bounkani"},"geometry":{"type":"Point","coordinates":[-3.4467,9.1676]}},{"type":"Feature","properties":{"kind":"region","id":"cavally","name":"Cavally"},"geometry":{"type":"Point","coordinates":[-7.6861,6.3331]}},{"type":"Feature","properties":{"kind":"region","id":"folon","name":"Folon"},"geometry":{"type":"Point","coordinates":[-7.4002,10.1]}},{"type":"Feature","properties":{"kind":"region","id":"gbeke","name":"Gbêkê"},"geometry":{"type":"Point","coordinates":[-5.2163,7.7029]}},{"type":"Feature","properties":{"kind":"region","id":"gbokle","name":"Gbôklé"},"geometry":{"type":"Point","coordinates":[-5.9718,5.267]}},{"type":"Feature","properties":{"kind":"region","id":"goh","name":"Gôh"},"geometry":{"type":"Point","coordinates":[-5.8777,6.2158]}},{"type":"Feature","properties":{"kind":"region","id":"gontougo","name":"Gontougo"},"geometry":{"type":"Point","coordinates":[-3.2124,7.9922]}},{"type":"Feature","properties":{"kind":"region","id":"grands-ponts","name":"Grands-Ponts"},"geometry":{"type":"Point","coordinates":[-4.7766,5.3601]}},{"type":"Feature","properties":{"kind":"region","id":"guemon","name":"Guémon"},"geometry":{"type":"Point","coordinates":[-7.3162,7.018]}},{"type":"Feature","properties":{"kind":"region","id":"hambol","name":"Hambol"},"geometry":{"type":"Point","coordinates":[-4.8384,8.5204]}},{"type":"Feature","properties":{"kind":"region","id":"haut-sassandra","name":"Haut-Sassandra"},"geometry":{"type":"Point","coordinates":[-6.6035,7.0362]}},{"type":"Feature","properties":{"kind":"region","id":"iffou","name":"Iffou"},"geometry":{"type":"Point","coordinates":[-4.06,7.4642]}},{"type":"Feature","properties":{"kind":"region","id":"indenie-djuablin","name":"Indénié-Djuablin"},"geometry":{"type":"Point","coordinates":[-3.4271,6.7152]}},{"type":"Feature","properties":{"kind":"region","id":"kabadougou","name":"Kabadougou"},"geometry":{"type":"Point","coordinates":[-7.3784,9.4234]}},{"type":"Feature","properties":{"kind":"region","id":"loh-djiboua","name":"Lôh-Djiboua"},"geometry":{"type":"Point","coordinates":[-5.4043,5.7572]}},{"type":"Feature","properties":{"kind":"region","id":"marahoue","name":"Marahoué"},"geometry":{"type":"Point","coordinates":[-5.8928,7.0852]}},{"type":"Feature","properties":{"kind":"region","id":"la-me","name":"La Mé"},"geometry":{"type":"Point","coordinates":[-3.7433,5.9892]}},{"type":"Feature","properties":{"kind":"region","id":"nawa","name":"Nawa"},"geometry":{"type":"Point","coordinates":[-6.6693,5.8532]}},{"type":"Feature","properties":{"kind":"region","id":"poro","name":"Poro"},"geometry":{"type":"Point","coordinates":[-5.833,9.4158]}},{"type":"Feature","properties":{"kind":"region","id":"san-pedro","name":"San-Pédro"},"geometry":{"type":"Point","coordinates":[-7.0471,5.0129]}},{"type":"Feature","properties":{"kind":"region","id":"sud-comoe","name":"Sud-Comoé"},"geometry":{"type":"Point","coordinates":[-3.1798,5.4807]}},{"type":"Feature","properties":{"kind":"region","id":"tchologo","name":"Tchologo"},"geometry":{"type":"Point","coordinates":[-4.8199,9.5051]}},{"type":"Feature","properties":{"kind":"region","id":"tonkpi","name":"Tonkpi"},"geometry":{"type":"Point","coordinates":[-7.8209,7.4734]}},{"type":"Feature","properties":{"kind":"region","id":"worodougou","name":"Worodougou"},"geometry":{"type":"Point","coordinates":[-6.7575,8.3806]}},{"type":"Feature","properties":{"kind":"region","id":"nzi","name":"N'Zi"},"geometry":{"type":"Point","coordinates":[-4.5608,6.9738]}},{"type":"Feature","properties":{"kind":"region","id":"moronou","name":"Moronou"},"geometry":{"type":"Point","coordinates":[-4.2393,6.603]}}]}
