{"type":"FeatureCollection","metadata":{"source":"© contributeurs OpenStreetMap (ODbL) — extraction Overpass place=city|town","extractedAt":"2026-09-10","count":172},"features":[{"type":"Feature","properties":{"id":"abidjan","osmId":1046100133,"name":"Abidjan","place":"city","population":7567409,"populationYear":2014,"wikidata":"Q1515","district":"abidjan","region":"da-abidjan"},"geometry":{"type":"Point","coordinates":[-4.01611,5.32036]}},{"type":"Feature","properties":{"id":"bouake","osmId":27565008,"name":"Bouaké","place":"city","population":832371,"populationYear":2021,"populationSource":"RGPH 2021","wikidata":"Q271000","district":"vallee-du-bandama","region":"gbeke"},"geometry":{"type":"Point","coordinates":[-5.02836,7.68902]}},{"type":"Feature","properties":{"id":"korhogo","osmId":1599959917,"name":"Korhogo","place":"city","population":440926,"populationYear":2021,"populationSource":"RGPH 2021","wikidata":"Q985627","district":"savanes","region":"poro"},"geometry":{"type":"Point","coordinates":[-5.63163,9.45807]}},{"type":"Feature","properties":{"id":"daloa","osmId":1597912529,"name":"Daloa","place":"city","population":421879,"populationYear":2021,"populationSource":"RGPH 2021","wikidata":"Q860304","district":"sassandra-marahoue","region":"haut-sassandra"},"geometry":{"type":"Point","coordinates":[-6.45299,6.88692]}},{"type":"Feature","properties":{"id":"san-pedro","osmId":243642619,"name":"San-Pédro","place":"city","population":390654,"populationYear":2021,"populationSource":"RGPH 2021","wikidata":"Q609831","district":"bas-sassandra","region":"san-pedro"},"geometry":{"type":"Point","coordinates":[-6.64639,4.759]}},{"type":"Feature","properties":{"id":"anyama","osmId":1225859428,"name":"Anyama","place":"city","population":389592,"populationYear":2021,"populationSource":"RGPH 2021","wikidata":"Q613795","district":"abidjan","region":"da-abidjan"},"geometry":{"type":"Point","coordinates":[-4.05124,5.49605]}},{"type":"Feature","properties":{"id":"yamoussoukro","osmId":319225774,"name":"Yamoussoukro","place":"city","population":340234,"populationYear":2021,"populationSource":"RGPH 2021","wikidata":"Q3768","district":"yamoussoukro","region":"da-yamoussoukro"},"geometry":{"type":"Point","coordinates":[-5.2776,6.82001]}},{"type":"Feature","properties":{"id":"divo","osmId":443389991,"name":"Divo","place":"city","population":294559,"populationYear":2021,"populationSource":"RGPH 2021","wikidata":"Q1530295","district":"goh-djiboua","region":"loh-djiboua"},"geometry":{"type":"Point","coordinates":[-5.3549,5.84053]}},{"type":"Feature","properties":{"id":"gagnoa","osmId":443395221,"name":"Gagnoa","place":"city","population":277044,"populationYear":2021,"populationSource":"RGPH 2021","wikidata":"Q18592055","district":"goh-djiboua","region":"goh"},"geometry":{"type":"Point","coordinates":[-5.9511,6.13348]}},{"type":"Feature","properties":{"id":"soubre","osmId":1599891204,"name":"Soubré","place":"city","population":272773,"populationYear":2021,"populationSource":"RGPH 2021","wikidata":"Q1587131","district":"bas-sassandra","region":"nawa"},"geometry":{"type":"Point","coordinates":[-6.59332,5.78502]}},{"type":"Feature","properties":{"id":"man","osmId":1597913597,"name":"Man","place":"city","population":241969,"populationYear":2021,"populationSource":"RGPH 2021","wikidata":"Q1191011","district":"montagnes","region":"tonkpi"},"geometry":{"type":"Point","coordinates":[-7.55037,7.41026]}},{"type":"Feature","properties":{"id":"duekoue","osmId":1079388440,"name":"Duékoué","place":"city","population":220953,"populationYear":2021,"populationSource":"RGPH 2021","wikidata":"Q1268139","district":"montagnes","region":"guemon"},"geometry":{"type":"Point","coordinates":[-7.34327,6.7453]}},{"type":"Feature","properties":{"id":"bouafle","osmId":4387322934,"name":"Bouaflé","place":"city","population":213967,"populationYear":2021,"populationSource":"RGPH 2021","wikidata":"Q1588797","district":"sassandra-marahoue","region":"marahoue"},"geometry":{"type":"Point","coordinates":[-5.74583,6.98018]}},{"type":"Feature","properties":{"id":"bingerville","osmId":1601215067,"name":"Bingerville","place":"city","population":204656,"populationYear":2021,"populationSource":"RGPH 2021","wikidata":"Q863795","district":"abidjan","region":"da-abidjan"},"geometry":{"type":"Point","coordinates":[-3.88856,5.35777]}},{"type":"Feature","properties":{"id":"guiglo","osmId":2726670194,"name":"Guiglo","place":"city","population":171454,"populationYear":2021,"populationSource":"RGPH 2021","wikidata":"Q1553776","district":"montagnes","region":"cavally"},"geometry":{"type":"Point","coordinates":[-7.49597,6.54914]}},{"type":"Feature","properties":{"id":"lakota","osmId":443387111,"name":"Lakota","place":"city","population":169330,"populationYear":2021,"populationSource":"RGPH 2021","wikidata":"Q23188658","district":"goh-djiboua","region":"loh-djiboua"},"geometry":{"type":"Point","coordinates":[-5.68278,5.85112]}},{"type":"Feature","properties":{"id":"abengourou","osmId":2189893258,"name":"Abengourou","place":"city","population":164424,"populationYear":2021,"populationSource":"RGPH 2021","wikidata":"Q1044225","district":"comoe","region":"indenie-djuablin"},"geometry":{"type":"Point","coordinates":[-3.49684,6.7269]}},{"type":"Feature","properties":{"id":"ferkessedougou","osmId":1828765103,"name":"Ferkéssédougou","place":"city","population":160267,"populationYear":2021,"populationSource":"RGPH 2021","wikidata":"Q2855736","district":"savanes","region":"tchologo"},"geometry":{"type":"Point","coordinates":[-5.1976,9.59398]}},{"type":"Feature","properties":{"id":"adzope","osmId":1225847163,"name":"Adzopé","place":"city","population":156488,"populationYear":2021,"populationSource":"RGPH 2021","wikidata":"Q1270691","district":"lagunes","region":"la-me"},"geometry":{"type":"Point","coordinates":[-3.86404,6.10583]}},{"type":"Feature","properties":{"id":"meagui","osmId":1153415065,"name":"Méagui","place":"city","population":153483,"populationYear":2021,"populationSource":"RGPH 2021","wikidata":"Q3332108","district":"bas-sassandra","region":"nawa"},"geometry":{"type":"Point","coordinates":[-6.55517,5.40393]}},{"type":"Feature","properties":{"id":"bondoukou","osmId":2725962976,"name":"Bondoukou","place":"city","population":141568,"populationYear":2021,"populationSource":"RGPH 2021","wikidata":"Q892276","district":"zanzan","region":"gontougo"},"geometry":{"type":"Point","coordinates":[-2.79843,8.0398]}},{"type":"Feature","properties":{"id":"dabou","osmId":1605486862,"name":"Dabou","place":"city","population":138083,"populationYear":2021,"populationSource":"RGPH 2021","wikidata":"Q1588249","district":"lagunes","region":"grands-ponts"},"geometry":{"type":"Point","coordinates":[-4.3723,5.324]}},{"type":"Feature","properties":{"id":"sinfra","osmId":2726018272,"name":"Sinfra","place":"city","population":137210,"populationYear":2021,"populationSource":"RGPH 2021","wikidata":"Q12709357","district":"sassandra-marahoue","region":"marahoue"},"geometry":{"type":"Point","coordinates":[-5.90895,6.61675]}},{"type":"Feature","properties":{"id":"agboville","osmId":2721007532,"name":"Agboville","place":"city","population":135082,"populationYear":2021,"populationSource":"RGPH 2021","wikidata":"Q2080938","district":"lagunes","region":"agneby-tiassa"},"geometry":{"type":"Point","coordinates":[-4.21313,5.93073]}},{"type":"Feature","properties":{"id":"vavoua","osmId":443329790,"name":"Vavoua","place":"city","population":132528,"populationYear":2021,"populationSource":"RGPH 2021","wikidata":"Q12712267","district":"sassandra-marahoue","region":"haut-sassandra"},"geometry":{"type":"Point","coordinates":[-6.47966,7.37935]}},{"type":"Feature","properties":{"id":"danane","osmId":1597916993,"name":"Danané","place":"city","population":131586,"populationYear":2021,"populationSource":"RGPH 2021","wikidata":"Q15212705","district":"montagnes","region":"tonkpi"},"geometry":{"type":"Point","coordinates":[-8.15463,7.26313]}},{"type":"Feature","properties":{"id":"grand-bereby","osmId":2728722168,"name":"Grand-Béréby","place":"town","population":129340,"populationYear":2021,"populationSource":"RGPH 2021","wikidata":"Q534166","district":"bas-sassandra","region":"san-pedro"},"geometry":{"type":"Point","coordinates":[-6.92474,4.65076]}},{"type":"Feature","properties":{"id":"oume","osmId":443393778,"name":"Oumé","place":"city","population":127153,"populationYear":2021,"populationSource":"RGPH 2021","wikidata":"Q1102546","district":"goh-djiboua","region":"goh"},"geometry":{"type":"Point","coordinates":[-5.41757,6.38239]}},{"type":"Feature","properties":{"id":"issia","osmId":1599890269,"name":"Issia","place":"city","population":126252,"populationYear":2021,"populationSource":"RGPH 2021","wikidata":"Q12688278","district":"sassandra-marahoue","region":"haut-sassandra"},"geometry":{"type":"Point","coordinates":[-6.58879,6.48779]}},{"type":"Feature","properties":{"id":"grand-bassam","osmId":1593622307,"name":"Grand-Bassam","place":"city","population":124567,"populationYear":2021,"populationSource":"RGPH 2021","wikidata":"Q582922","district":"comoe","region":"sud-comoe"},"geometry":{"type":"Point","coordinates":[-3.74323,5.21288]}},{"type":"Feature","properties":{"id":"blolequin","osmId":1191398314,"name":"Bloléquin","place":"town","population":123133,"populationYear":2021,"populationSource":"RGPH 2021","wikidata":"Q951727","district":"montagnes","region":"cavally"},"geometry":{"type":"Point","coordinates":[-8.00327,6.57055]}},{"type":"Feature","properties":{"id":"okrouyo","osmId":2935909683,"name":"Okrouyo","place":"town","population":120053,"populationYear":2021,"populationSource":"RGPH 2021","wikidata":"Q3350079","district":"bas-sassandra","region":"nawa"},"geometry":{"type":"Point","coordinates":[-6.40803,5.76557]}},{"type":"Feature","properties":{"id":"bonoua","osmId":843510776,"name":"Bonoua","place":"town","population":118388,"populationYear":2021,"populationSource":"RGPH 2021","wikidata":"Q2910328","district":"comoe","region":"sud-comoe"},"geometry":{"type":"Point","coordinates":[-3.59668,5.27366]}},{"type":"Feature","properties":{"id":"bonon","osmId":443318327,"name":"Bonon","place":"town","population":116871,"populationYear":2021,"populationSource":"RGPH 2021","wikidata":"Q2910327","district":"sassandra-marahoue","region":"marahoue"},"geometry":{"type":"Point","coordinates":[-6.04428,6.92692]}},{"type":"Feature","properties":{"id":"gabiadji","osmId":443383638,"name":"Gabiadji","place":"town","population":113369,"populationYear":2021,"populationSource":"RGPH 2021","wikidata":"Q3093516","district":"bas-sassandra","region":"san-pedro"},"geometry":{"type":"Point","coordinates":[-6.55889,5.02014]}},{"type":"Feature","properties":{"id":"grand-zattry","osmId":1374676723,"name":"Grand-Zattry","place":"town","population":112049,"populationYear":2021,"populationSource":"RGPH 2021","wikidata":"Q3113469","district":"bas-sassandra","region":"nawa"},"geometry":{"type":"Point","coordinates":[-6.53832,6.11895]}},{"type":"Feature","properties":{"id":"zouan-hounien","osmId":443404014,"name":"Zouan-Hounien","place":"town","population":111099,"populationYear":2021,"populationSource":"RGPH 2021","wikidata":"Q227017","district":"montagnes","region":"tonkpi"},"geometry":{"type":"Point","coordinates":[-8.20892,6.91982]}},{"type":"Feature","properties":{"id":"seitifla","osmId":443330869,"name":"Séitifla","place":"town","population":109252,"populationYear":2021,"populationSource":"RGPH 2021","wikidata":"Q3510597","district":"sassandra-marahoue","region":"haut-sassandra"},"geometry":{"type":"Point","coordinates":[-6.71816,7.44037]}},{"type":"Feature","properties":{"id":"dania","osmId":2948573986,"name":"Dania","place":"town","population":106612,"populationYear":2021,"populationSource":"RGPH 2021","wikidata":"Q1237800","district":"sassandra-marahoue","region":"haut-sassandra"},"geometry":{"type":"Point","coordinates":[-6.84161,7.1524]}},{"type":"Feature","properties":{"id":"seguela","osmId":2725995822,"name":"Séguéla","place":"town","population":103980,"populationYear":2021,"populationSource":"RGPH 2021","wikidata":"Q952665","district":"woroba","region":"worodougou"},"geometry":{"type":"Point","coordinates":[-6.67024,7.96141]}},{"type":"Feature","properties":{"id":"daoukro","osmId":2726676487,"name":"Daoukro","place":"town","population":101136,"populationYear":2021,"populationSource":"RGPH 2021","wikidata":"Q3015844","district":"lacs","region":"iffou"},"geometry":{"type":"Point","coordinates":[-3.96607,7.05794]}},{"type":"Feature","properties":{"id":"aboisso","osmId":1596425102,"name":"Aboisso","place":"town","population":100903,"populationYear":2021,"populationSource":"RGPH 2021","wikidata":"Q521322","district":"comoe","region":"sud-comoe"},"geometry":{"type":"Point","coordinates":[-3.20662,5.46749]}},{"type":"Feature","properties":{"id":"buyo","osmId":9517111609,"name":"Buyo","place":"town","population":100848,"populationYear":2021,"populationSource":"RGPH 2021","district":"bas-sassandra","region":"nawa"},"geometry":{"type":"Point","coordinates":[-7.00573,6.25072]}},{"type":"Feature","properties":{"id":"saioua","osmId":2948576219,"name":"Saïoua","place":"town","population":100085,"populationYear":2021,"populationSource":"RGPH 2021","wikidata":"Q3474869","district":"sassandra-marahoue","region":"haut-sassandra"},"geometry":{"type":"Point","coordinates":[-6.27616,6.48732]}},{"type":"Feature","properties":{"id":"agnibilekrou","osmId":319225870,"name":"Agnibilékrou","place":"town","population":99501,"populationYear":2021,"populationSource":"RGPH 2021","wikidata":"Q3544378","district":"comoe","region":"indenie-djuablin"},"geometry":{"type":"Point","coordinates":[-3.20153,7.12799]}},{"type":"Feature","properties":{"id":"n-douci","osmId":843207421,"name":"N’Douci","place":"town","population":97194,"populationYear":2021,"populationSource":"RGPH 2021","wikidata":"Q3334131","district":"lagunes","region":"agneby-tiassa"},"geometry":{"type":"Point","coordinates":[-4.76307,5.8651]}},{"type":"Feature","properties":{"id":"doba","osmId":9594335845,"name":"Doba","place":"town","population":95246,"populationYear":2021,"populationSource":"RGPH 2021","wikidata":"Q3033263","district":"bas-sassandra","region":"san-pedro"},"geometry":{"type":"Point","coordinates":[-6.83088,5.20089]}},{"type":"Feature","properties":{"id":"bouna","osmId":593916769,"name":"Bouna","place":"town","population":94883,"populationYear":2021,"populationSource":"RGPH 2021","wikidata":"Q2922170","district":"zanzan","region":"bounkani"},"geometry":{"type":"Point","coordinates":[-2.99898,9.26872]}},{"type":"Feature","properties":{"id":"boundiali","osmId":2522426405,"name":"Boundiali","place":"town","population":92792,"populationYear":2021,"populationSource":"RGPH 2021","wikidata":"Q2922207","district":"savanes","region":"bagoue"},"geometry":{"type":"Point","coordinates":[-6.48202,9.52323]}},{"type":"Feature","properties":{"id":"tengrela","osmId":443246110,"name":"Tengréla","place":"town","population":92454,"populationYear":2021,"populationSource":"RGPH 2021","wikidata":"Q3518087","district":"savanes","region":"bagoue"},"geometry":{"type":"Point","coordinates":[-6.4084,10.48084]}},{"type":"Feature","properties":{"id":"sago","osmId":443386533,"name":"Sago","place":"town","population":91140,"populationYear":2021,"populationSource":"RGPH 2021","wikidata":"Q3461433","district":"bas-sassandra","region":"gbokle"},"geometry":{"type":"Point","coordinates":[-5.91663,5.26712]}},{"type":"Feature","properties":{"id":"katiola","osmId":443378249,"name":"Katiola","place":"town","population":90641,"populationYear":2021,"populationSource":"RGPH 2021","wikidata":"Q2409805","district":"vallee-du-bandama","region":"hambol"},"geometry":{"type":"Point","coordinates":[-5.10217,8.14041]}},{"type":"Feature","properties":{"id":"songon","osmId":2905034837,"name":"Songon","place":"town","population":89778,"populationYear":2021,"populationSource":"RGPH 2021","district":"abidjan","region":"da-abidjan"},"geometry":{"type":"Point","coordinates":[-4.25167,5.3249]}},{"type":"Feature","properties":{"id":"toumodi","osmId":1597902622,"name":"Toumodi","place":"town","population":88580,"populationYear":2021,"populationSource":"RGPH 2021","wikidata":"Q3532934","district":"lacs","region":"belier"},"geometry":{"type":"Point","coordinates":[-5.01609,6.56022]}},{"type":"Feature","properties":{"id":"sassandra","osmId":1595489017,"name":"Sassandra","place":"town","population":87945,"populationYear":2021,"populationSource":"RGPH 2021","wikidata":"Q586448","district":"bas-sassandra","region":"gbokle"},"geometry":{"type":"Point","coordinates":[-6.09217,4.949]}},{"type":"Feature","properties":{"id":"odienne","osmId":319225802,"name":"Odienné","place":"town","population":86279,"populationYear":2021,"populationSource":"RGPH 2021","wikidata":"Q506811","district":"denguele","region":"kabadougou"},"geometry":{"type":"Point","coordinates":[-7.56194,9.50443]}},{"type":"Feature","properties":{"id":"ouangolodougou","osmId":1599958076,"name":"Ouangolodougou","place":"town","population":85334,"populationYear":2021,"populationSource":"RGPH 2021","wikidata":"Q3302129","district":"savanes","region":"tchologo"},"geometry":{"type":"Point","coordinates":[-5.14992,9.96628]}},{"type":"Feature","properties":{"id":"tiassale","osmId":319225766,"name":"Tiassalé","place":"town","population":83648,"populationYear":2021,"populationSource":"RGPH 2021","wikidata":"Q12711544","district":"lagunes","region":"agneby-tiassa"},"geometry":{"type":"Point","coordinates":[-4.82506,5.89565]}},{"type":"Feature","properties":{"id":"grand-lahou","osmId":359133934,"name":"Grand-Lahou","place":"town","population":77479,"populationYear":2021,"populationSource":"RGPH 2021","district":"lagunes","region":"grands-ponts"},"geometry":{"type":"Point","coordinates":[-5.00244,5.25034]}},{"type":"Feature","properties":{"id":"mankono","osmId":2735819665,"name":"Mankono","place":"town","population":74165,"populationYear":2021,"populationSource":"RGPH 2021","district":"woroba","region":"bere"},"geometry":{"type":"Point","coordinates":[-6.18978,8.05773]}},{"type":"Feature","properties":{"id":"dimbokro","osmId":1597903144,"name":"Dimbokro","place":"town","population":70198,"populationYear":2021,"populationSource":"RGPH 2021","wikidata":"Q678980","district":"lacs","region":"nzi"},"geometry":{"type":"Point","coordinates":[-4.70406,6.64943]}},{"type":"Feature","properties":{"id":"tabou","osmId":2721194434,"name":"Tabou","place":"town","population":62719,"populationYear":2021,"populationSource":"RGPH 2021","wikidata":"Q24910870","district":"bas-sassandra","region":"san-pedro"},"geometry":{"type":"Point","coordinates":[-7.35592,4.41628]}},{"type":"Feature","properties":{"id":"dogbo","osmId":2935918848,"name":"Dogbo","place":"town","population":61632,"populationYear":2021,"populationSource":"RGPH 2021","wikidata":"Q3033735","district":"bas-sassandra","region":"san-pedro"},"geometry":{"type":"Point","coordinates":[-7.04356,4.94194]}},{"type":"Feature","properties":{"id":"bocanda","osmId":443299004,"name":"Bocanda","place":"town","population":59242,"populationYear":2021,"populationSource":"RGPH 2021","wikidata":"Q2908271","district":"lacs","region":"nzi"},"geometry":{"type":"Point","coordinates":[-4.49725,7.06307]}},{"type":"Feature","properties":{"id":"taabo","osmId":5162635562,"name":"Taabo","place":"town","population":57189,"populationYear":2021,"populationSource":"RGPH 2021","wikidata":"Q3512670","district":"lagunes","region":"agneby-tiassa"},"geometry":{"type":"Point","coordinates":[-5.06998,6.26688]}},{"type":"Feature","properties":{"id":"kouto","osmId":443285316,"name":"Kouto","place":"town","population":55893,"populationYear":2021,"populationSource":"RGPH 2021","wikidata":"Q1102790","district":"savanes","region":"bagoue"},"geometry":{"type":"Point","coordinates":[-6.41276,9.89273]}},{"type":"Feature","properties":{"id":"kani","osmId":443349580,"name":"Kani","place":"town","population":55109,"populationYear":2021,"populationSource":"RGPH 2021","wikidata":"Q3192664","district":"woroba","region":"worodougou"},"geometry":{"type":"Point","coordinates":[-6.60327,8.47725]}},{"type":"Feature","properties":{"id":"jacqueville","osmId":1225951579,"name":"Jacqueville","place":"town","population":55000,"wikidata":"Q6121011","district":"lagunes","region":"grands-ponts"},"geometry":{"type":"Point","coordinates":[-4.41951,5.20765]}},{"type":"Feature","properties":{"id":"zuenoula","osmId":443315177,"name":"Zuénoula","place":"town","population":53000,"wikidata":"Q23090991","district":"sassandra-marahoue","region":"marahoue"},"geometry":{"type":"Point","coordinates":[-6.05003,7.42802]}},{"type":"Feature","properties":{"id":"akoupe","osmId":319225767,"name":"Akoupé","place":"town","population":51000,"wikidata":"Q420598","district":"lagunes","region":"la-me"},"geometry":{"type":"Point","coordinates":[-3.8859,6.38152]}},{"type":"Feature","properties":{"id":"doropo","osmId":434403950,"name":"Doropo","place":"town","population":48225,"populationYear":2021,"populationSource":"RGPH 2021","wikidata":"Q3037133","district":"zanzan","region":"bounkani"},"geometry":{"type":"Point","coordinates":[-3.34588,9.80952]}},{"type":"Feature","properties":{"id":"fresco","osmId":2746320464,"name":"Fresco","place":"town","population":48098,"populationYear":2021,"populationSource":"RGPH 2021","district":"bas-sassandra","region":"gbokle"},"geometry":{"type":"Point","coordinates":[-5.58608,5.10418]}},{"type":"Feature","properties":{"id":"dahiri","osmId":2933584068,"name":"Dahiri","place":"town","population":34821,"populationYear":2021,"populationSource":"RGPH 2021","wikidata":"Q3011942","district":"bas-sassandra","region":"gbokle"},"geometry":{"type":"Point","coordinates":[-5.52579,5.28317]}},{"type":"Feature","properties":{"id":"lolobo","osmId":858772714,"name":"Lolobo","place":"town","population":34650,"populationYear":2021,"populationSource":"RGPH 2021","wikidata":"Q3258813","district":"yamoussoukro","region":"da-yamoussoukro"},"geometry":{"type":"Point","coordinates":[-5.26572,6.95779]}},{"type":"Feature","properties":{"id":"kong","osmId":443377813,"name":"Kong","place":"town","population":33391,"populationYear":2021,"populationSource":"RGPH 2021","wikidata":"Q1781511","district":"savanes","region":"tchologo"},"geometry":{"type":"Point","coordinates":[-4.61065,9.14868]}},{"type":"Feature","properties":{"id":"kossou","osmId":2735786890,"name":"Kossou","place":"town","population":32320,"populationYear":2021,"populationSource":"RGPH 2021","district":"yamoussoukro","region":"da-yamoussoukro"},"geometry":{"type":"Point","coordinates":[-5.48023,7.00229]}},{"type":"Feature","properties":{"id":"bongouanou","osmId":1377429553,"name":"Bongouanou","place":"town","population":32000,"wikidata":"Q2910064","district":"lacs","region":"moronou"},"geometry":{"type":"Point","coordinates":[-4.20466,6.64753]}},{"type":"Feature","properties":{"id":"sifie","osmId":2773414916,"name":"Sifié","place":"town","population":31264,"populationSource":"RGPH 2021","wikidata":"Q3483494","district":"woroba","region":"worodougou"},"geometry":{"type":"Point","coordinates":[-6.92732,7.98391]}},{"type":"Feature","properties":{"id":"touba","osmId":319225798,"name":"Touba","place":"town","population":30000,"wikidata":"Q2308752","district":"woroba","region":"bafing"},"geometry":{"type":"Point","coordinates":[-7.68181,8.2841]}},{"type":"Feature","properties":{"id":"cechi","osmId":2921097119,"name":"Céchi","place":"town","population":25967,"populationSource":"RGPH 2021","wikidata":"Q3009694","district":"lagunes","region":"agneby-tiassa"},"geometry":{"type":"Point","coordinates":[-4.42087,6.24617]}},{"type":"Feature","properties":{"id":"beoumi","osmId":359160469,"name":"Béoumi","place":"town","population":25000,"wikidata":"Q2929948","district":"vallee-du-bandama","region":"gbeke"},"geometry":{"type":"Point","coordinates":[-5.58273,7.67454]}},{"type":"Feature","properties":{"id":"biankouma","osmId":2730750565,"name":"Biankouma","place":"town","population":25000,"wikidata":"Q1102796","district":"montagnes","region":"tonkpi"},"geometry":{"type":"Point","coordinates":[-7.6128,7.73835]}},{"type":"Feature","properties":{"id":"kouassi-kouassikro","osmId":2944573639,"name":"Kouassi-Kouassikro","place":"town","population":25000,"district":"lacs","region":"nzi"},"geometry":{"type":"Point","coordinates":[-4.67709,7.34141]}},{"type":"Feature","properties":{"id":"toulepleu","osmId":2735919293,"name":"Toulépleu","place":"town","population":22000,"wikidata":"Q990954","district":"montagnes","region":"cavally"},"geometry":{"type":"Point","coordinates":[-8.41502,6.5809]}},{"type":"Feature","properties":{"id":"bangolo","osmId":319225783,"name":"Bangolo","place":"town","population":20000,"wikidata":"Q2882487","district":"montagnes","region":"guemon"},"geometry":{"type":"Point","coordinates":[-7.48676,7.0119]}},{"type":"Feature","properties":{"id":"tiebissou","osmId":858772438,"name":"Tiébissou","place":"town","population":20000,"wikidata":"Q2437339","district":"lacs","region":"belier"},"geometry":{"type":"Point","coordinates":[-5.22557,7.15807]}},{"type":"Feature","properties":{"id":"adiake","osmId":1225830409,"name":"Adiaké","place":"town","population":18000,"wikidata":"Q2824381","district":"comoe","region":"sud-comoe"},"geometry":{"type":"Point","coordinates":[-3.30201,5.28684]}},{"type":"Feature","properties":{"id":"sakassou","osmId":2491332497,"name":"Sakassou","place":"town","population":17000,"wikidata":"Q25247576","district":"vallee-du-bandama","region":"gbeke"},"geometry":{"type":"Point","coordinates":[-5.29235,7.45348]}},{"type":"Feature","properties":{"id":"dabakala","osmId":443296909,"name":"Dabakala","place":"town","population":15000,"wikidata":"Q6571316","district":"vallee-du-bandama","region":"hambol"},"geometry":{"type":"Point","coordinates":[-4.42849,8.36324]}},{"type":"Feature","properties":{"id":"tafire","osmId":816241172,"name":"Tafiré","place":"town","population":15000,"district":"vallee-du-bandama","region":"hambol"},"geometry":{"type":"Point","coordinates":[-5.16376,9.07147]}},{"type":"Feature","properties":{"id":"botro","osmId":2746220735,"name":"Botro","place":"town","population":15000,"wikidata":"Q2911824","district":"vallee-du-bandama","region":"gbeke"},"geometry":{"type":"Point","coordinates":[-5.31037,7.85254]}},{"type":"Feature","properties":{"id":"attiegouakro","osmId":2746016530,"name":"Attiégouakro","place":"town","population":14863,"populationYear":2021,"populationSource":"RGPH 2021","wikidata":"Q2870129","district":"yamoussoukro","region":"da-yamoussoukro"},"geometry":{"type":"Point","coordinates":[-5.1178,6.77601]}},{"type":"Feature","properties":{"id":"minignan","osmId":443216727,"name":"Minignan","place":"town","population":14000,"wikidata":"Q3315058","district":"denguele","region":"folon"},"geometry":{"type":"Point","coordinates":[-7.83615,9.99856]}},{"type":"Feature","properties":{"id":"samatiguila","osmId":703942949,"name":"Samatiguila","place":"town","population":6000,"wikidata":"Q3470659","district":"denguele","region":"kabadougou"},"geometry":{"type":"Point","coordinates":[-7.56149,9.8184]}},{"type":"Feature","properties":{"id":"nielle","osmId":319225844,"name":"Niellé","place":"town","wikidata":"Q967503","district":"savanes","region":"tchologo"},"geometry":{"type":"Point","coordinates":[-5.62493,10.1979]}},{"type":"Feature","properties":{"id":"tieme","osmId":443224124,"name":"Tiéme","place":"town","district":"denguele","region":"kabadougou"},"geometry":{"type":"Point","coordinates":[-7.31767,9.54323]}},{"type":"Feature","properties":{"id":"madinani","osmId":443287953,"name":"Madinani","place":"town","wikidata":"Q3276081","district":"denguele","region":"kabadougou"},"geometry":{"type":"Point","coordinates":[-6.94307,9.61038]}},{"type":"Feature","properties":{"id":"niakaramandougou","osmId":443294963,"name":"Niakaramandougou","place":"town","wikidata":"Q3339444","district":"vallee-du-bandama","region":"hambol"},"geometry":{"type":"Point","coordinates":[-5.28941,8.66069]}},{"type":"Feature","properties":{"id":"foumbolo","osmId":443296531,"name":"Foumbolo","place":"town","wikidata":"Q3079923","district":"vallee-du-bandama","region":"hambol"},"geometry":{"type":"Point","coordinates":[-4.64772,8.64213]}},{"type":"Feature","properties":{"id":"diabo","osmId":443304149,"name":"Diabo","place":"town","wikidata":"Q3025795","district":"vallee-du-bandama","region":"gbeke"},"geometry":{"type":"Point","coordinates":[-5.17099,7.78815]}},{"type":"Feature","properties":{"id":"gohitafla","osmId":443315229,"name":"Gohitafla","place":"town","wikidata":"Q3109908","district":"sassandra-marahoue","region":"marahoue"},"geometry":{"type":"Point","coordinates":[-5.87995,7.49058]}},{"type":"Feature","properties":{"id":"kononfla","osmId":443319263,"name":"Kononfla","place":"town","district":"sassandra-marahoue","region":"marahoue"},"geometry":{"type":"Point","coordinates":[-5.60547,6.65142]}},{"type":"Feature","properties":{"id":"doukouya","osmId":443319478,"name":"Doukouya","place":"town","wikidata":"Q3038088","district":"goh-djiboua","region":"goh"},"geometry":{"type":"Point","coordinates":[-5.55895,6.42613]}},{"type":"Feature","properties":{"id":"gonate","osmId":443321097,"name":"Gonaté","place":"town","wikidata":"Q3110436","district":"sassandra-marahoue","region":"haut-sassandra"},"geometry":{"type":"Point","coordinates":[-6.2437,6.90115]}},{"type":"Feature","properties":{"id":"bonoufla","osmId":443327886,"name":"Bonoufla","place":"town","wikidata":"Q2910329","district":"sassandra-marahoue","region":"haut-sassandra"},"geometry":{"type":"Point","coordinates":[-6.47703,7.12716]}},{"type":"Feature","properties":{"id":"vaafla","osmId":443330540,"name":"Vaafla","place":"town","wikidata":"Q3553060","district":"sassandra-marahoue","region":"haut-sassandra"},"geometry":{"type":"Point","coordinates":[-6.64747,7.41504]}},{"type":"Feature","properties":{"id":"minore","osmId":443331228,"name":"Minoré","place":"town","wikidata":"Q3312897","district":"sassandra-marahoue","region":"haut-sassandra"},"geometry":{"type":"Point","coordinates":[-6.78805,7.48668]}},{"type":"Feature","properties":{"id":"sinematiali","osmId":443357112,"name":"Sinématiali","place":"town","wikidata":"Q3485096","district":"savanes","region":"poro"},"geometry":{"type":"Point","coordinates":[-5.38403,9.58408]}},{"type":"Feature","properties":{"id":"m-bengue","osmId":443360458,"name":"M’Bengué","place":"town","wikidata":"Q3303518","district":"savanes","region":"poro"},"geometry":{"type":"Point","coordinates":[-5.90074,10.00108]}},{"type":"Feature","properties":{"id":"goudi","osmId":443389581,"name":"Goudi","place":"town","wikidata":"Q3111574","district":"goh-djiboua","region":"loh-djiboua"},"geometry":{"type":"Point","coordinates":[-5.10311,6.1222]}},{"type":"Feature","properties":{"id":"hire","osmId":443392111,"name":"Hiré","place":"town","wikidata":"Q3136437","district":"goh-djiboua","region":"loh-djiboua"},"geometry":{"type":"Point","coordinates":[-5.29601,6.18637]}},{"type":"Feature","properties":{"id":"diegonefla","osmId":443394341,"name":"Diégonéfla","place":"town","wikidata":"Q3032696","district":"goh-djiboua","region":"goh"},"geometry":{"type":"Point","coordinates":[-5.57641,6.28448]}},{"type":"Feature","properties":{"id":"kahin-zarabaon","osmId":443403388,"name":"Kahin-Zarabaon","place":"town","district":"montagnes","region":"guemon"},"geometry":{"type":"Point","coordinates":[-7.63187,6.91359]}},{"type":"Feature","properties":{"id":"nassian","osmId":807184038,"name":"Nassian","place":"town","wikidata":"Q3336254","district":"zanzan","region":"bounkani"},"geometry":{"type":"Point","coordinates":[-3.47073,8.45305]}},{"type":"Feature","properties":{"id":"aprompronou","osmId":823613578,"name":"Aprompronou","place":"town","district":"comoe","region":"indenie-djuablin"},"geometry":{"type":"Point","coordinates":[-3.36036,7.00129]}},{"type":"Feature","properties":{"id":"koun-fao","osmId":843415491,"name":"Koun-Fao","place":"town","wikidata":"Q3199299","district":"zanzan","region":"gontougo"},"geometry":{"type":"Point","coordinates":[-3.25175,7.488]}},{"type":"Feature","properties":{"id":"aniassue","osmId":843415826,"name":"Aniassué","place":"town","wikidata":"Q2849903","district":"comoe","region":"indenie-djuablin"},"geometry":{"type":"Point","coordinates":[-3.68186,6.65542]}},{"type":"Feature","properties":{"id":"yakasse-feyasse","osmId":843416863,"name":"Yakassé-Féyassé","place":"town","wikidata":"Q3571353","district":"comoe","region":"indenie-djuablin"},"geometry":{"type":"Point","coordinates":[-3.41201,6.96014]}},{"type":"Feature","properties":{"id":"tanda","osmId":843418409,"name":"Tanda","place":"town","wikidata":"Q25247807","district":"zanzan","region":"gontougo"},"geometry":{"type":"Point","coordinates":[-3.16725,7.80366]}},{"type":"Feature","properties":{"id":"alepe","osmId":846762369,"name":"Alépé","place":"town","wikidata":"Q2840741","district":"lagunes","region":"la-me"},"geometry":{"type":"Point","coordinates":[-3.66389,5.49661]}},{"type":"Feature","properties":{"id":"bin-houye","osmId":1077253574,"name":"Bin-Houyé","place":"town","wikidata":"Q2903879","district":"montagnes","region":"tonkpi"},"geometry":{"type":"Point","coordinates":[-8.31639,6.78287]}},{"type":"Feature","properties":{"id":"tai","osmId":1091671536,"name":"Taï","place":"town","wikidata":"Q3516529","district":"montagnes","region":"cavally"},"geometry":{"type":"Point","coordinates":[-7.45313,5.87562]}},{"type":"Feature","properties":{"id":"rubino","osmId":1226027857,"name":"Rubino","place":"town","wikidata":"Q2171641","district":"lagunes","region":"agneby-tiassa"},"geometry":{"type":"Point","coordinates":[-4.30745,6.07177]}},{"type":"Feature","properties":{"id":"zagne","osmId":1238852358,"name":"Zagné","place":"town","wikidata":"Q3574567","district":"montagnes","region":"cavally"},"geometry":{"type":"Point","coordinates":[-7.48228,6.21029]}},{"type":"Feature","properties":{"id":"kouibly","osmId":1239009716,"name":"Kouibly","place":"town","wikidata":"Q3199252","district":"montagnes","region":"guemon"},"geometry":{"type":"Point","coordinates":[-7.2354,7.25682]}},{"type":"Feature","properties":{"id":"banabo","osmId":1308393826,"name":"Banabo","place":"town","wikidata":"Q4853756","district":"lacs","region":"moronou"},"geometry":{"type":"Point","coordinates":[-4.29052,6.7021]}},{"type":"Feature","properties":{"id":"gomon","osmId":1376344652,"name":"Gomon","place":"town","wikidata":"Q401442","district":"lagunes","region":"agneby-tiassa"},"geometry":{"type":"Point","coordinates":[-4.43948,5.72425]}},{"type":"Feature","properties":{"id":"sikensi","osmId":1376344653,"name":"Sikensi","place":"town","wikidata":"Q3483771","district":"lagunes","region":"agneby-tiassa"},"geometry":{"type":"Point","coordinates":[-4.57516,5.67137]}},{"type":"Feature","properties":{"id":"bodo","osmId":1376345469,"name":"Bodo","place":"town","district":"lagunes","region":"agneby-tiassa"},"geometry":{"type":"Point","coordinates":[-4.68458,5.90804]}},{"type":"Feature","properties":{"id":"krinjabo","osmId":1376363113,"name":"Krinjabo","place":"town","district":"comoe","region":"sud-comoe"},"geometry":{"type":"Point","coordinates":[-3.21222,5.3961]}},{"type":"Feature","properties":{"id":"touih","osmId":1602774852,"name":"Touih","place":"town","district":"bas-sassandra","region":"san-pedro"},"geometry":{"type":"Point","coordinates":[-6.53304,5.26009]}},{"type":"Feature","properties":{"id":"assinie-mafia","osmId":1625148248,"name":"Assinie-Mafia","place":"town","district":"comoe","region":"sud-comoe"},"geometry":{"type":"Point","coordinates":[-3.29166,5.13508]}},{"type":"Feature","properties":{"id":"napie","osmId":1626917070,"name":"Napié","place":"town","wikidata":"Q2420208","district":"savanes","region":"poro"},"geometry":{"type":"Point","coordinates":[-5.59027,9.29148]}},{"type":"Feature","properties":{"id":"tortiya","osmId":2144599945,"name":"Tortiya","place":"town","wikidata":"Q3532530","district":"vallee-du-bandama","region":"hambol"},"geometry":{"type":"Point","coordinates":[-5.68687,8.77107]}},{"type":"Feature","properties":{"id":"ouragahio","osmId":2403164231,"name":"Ouragahio","place":"town","wikidata":"Q957555","district":"goh-djiboua","region":"goh"},"geometry":{"type":"Point","coordinates":[-5.93124,6.30836]}},{"type":"Feature","properties":{"id":"ayame","osmId":2535414237,"name":"Ayamé","place":"town","wikidata":"Q2874862","district":"comoe","region":"sud-comoe"},"geometry":{"type":"Point","coordinates":[-3.15719,5.60602]}},{"type":"Feature","properties":{"id":"siempurgo","osmId":2597925045,"name":"Siempurgo","place":"town","wikidata":"Q569277","district":"savanes","region":"bagoue"},"geometry":{"type":"Point","coordinates":[-6.19374,9.52077]}},{"type":"Feature","properties":{"id":"bettie","osmId":2729986503,"name":"Bettié","place":"town","district":"comoe","region":"indenie-djuablin"},"geometry":{"type":"Point","coordinates":[-3.40958,6.07544]}},{"type":"Feature","properties":{"id":"yakasse-attobrou","osmId":2730005221,"name":"Yakassé-Attobrou","place":"town","wikidata":"Q3571352","district":"lagunes","region":"la-me"},"geometry":{"type":"Point","coordinates":[-3.65123,6.18247]}},{"type":"Feature","properties":{"id":"tieningboue","osmId":2735910464,"name":"Tiéningboué","place":"town","wikidata":"Q3530025","district":"woroba","region":"bere"},"geometry":{"type":"Point","coordinates":[-5.72209,8.17858]}},{"type":"Feature","properties":{"id":"gueyo","osmId":2746333023,"name":"Guéyo","place":"town","district":"bas-sassandra","region":"nawa"},"geometry":{"type":"Point","coordinates":[-6.07105,5.68996]}},{"type":"Feature","properties":{"id":"guitry","osmId":2746340457,"name":"Guitry","place":"town","district":"goh-djiboua","region":"loh-djiboua"},"geometry":{"type":"Point","coordinates":[-5.2401,5.51915]}},{"type":"Feature","properties":{"id":"kaniasso","osmId":2746956163,"name":"Kaniasso","place":"town","wikidata":"Q3192670","district":"denguele","region":"folon"},"geometry":{"type":"Point","coordinates":[-7.5111,9.81467]}},{"type":"Feature","properties":{"id":"m-batto","osmId":2747035158,"name":"M’Batto","place":"town","wikidata":"Q3334073","district":"lacs","region":"moronou"},"geometry":{"type":"Point","coordinates":[-4.35857,6.4695]}},{"type":"Feature","properties":{"id":"prikro","osmId":2747060680,"name":"Prikro","place":"town","district":"lacs","region":"iffou"},"geometry":{"type":"Point","coordinates":[-3.99732,7.64708]}},{"type":"Feature","properties":{"id":"transua","osmId":2747136963,"name":"Transua","place":"town","wikidata":"Q3538013","district":"zanzan","region":"gontougo"},"geometry":{"type":"Point","coordinates":[-3.01366,7.5495]}},{"type":"Feature","properties":{"id":"guiberoua","osmId":2775159278,"name":"Guibéroua","place":"town","wikidata":"Q3119338","district":"goh-djiboua","region":"goh"},"geometry":{"type":"Point","coordinates":[-6.17132,6.23886]}},{"type":"Feature","properties":{"id":"noe","osmId":2863973471,"name":"Noé","place":"town","wikidata":"Q3345707","district":"comoe","region":"sud-comoe"},"geometry":{"type":"Point","coordinates":[-2.79445,5.29041]}},{"type":"Feature","properties":{"id":"gbolouville","osmId":2921489872,"name":"Gbolouville","place":"town","wikidata":"Q24913086","district":"lagunes","region":"agneby-tiassa"},"geometry":{"type":"Point","coordinates":[-4.66406,5.79142]}},{"type":"Feature","properties":{"id":"guepahouo","osmId":2932415890,"name":"Guépahouo","place":"town","district":"goh-djiboua","region":"goh"},"geometry":{"type":"Point","coordinates":[-5.70615,6.47268]}},{"type":"Feature","properties":{"id":"didievi","osmId":2946492905,"name":"Didiévi","place":"town","wikidata":"Q3027248","district":"lacs","region":"belier"},"geometry":{"type":"Point","coordinates":[-4.89804,7.12866]}},{"type":"Feature","properties":{"id":"tie-n-diekro","osmId":2946493616,"name":"Tié-N’Diékro","place":"town","wikidata":"Q3528203","district":"lacs","region":"belier"},"geometry":{"type":"Point","coordinates":[-4.76519,7.42742]}},{"type":"Feature","properties":{"id":"iboguhe","osmId":2948573991,"name":"Iboguhé","place":"town","district":"sassandra-marahoue","region":"haut-sassandra"},"geometry":{"type":"Point","coordinates":[-6.84419,6.5481]}},{"type":"Feature","properties":{"id":"blapleu","osmId":2949727546,"name":"Blapleu","place":"town","wikidata":"Q2906151","district":"montagnes","region":"tonkpi"},"geometry":{"type":"Point","coordinates":[-7.73786,7.63927]}},{"type":"Feature","properties":{"id":"fronan","osmId":2963213117,"name":"Fronan","place":"town","district":"vallee-du-bandama","region":"hambol"},"geometry":{"type":"Point","coordinates":[-5.13029,8.21149]}},{"type":"Feature","properties":{"id":"bogofa","osmId":2964840313,"name":"Bogofa","place":"town","district":"zanzan","region":"bounkani"},"geometry":{"type":"Point","coordinates":[-3.15899,8.60598]}},{"type":"Feature","properties":{"id":"attinguie","osmId":2983245632,"name":"Attinguié","place":"town","wikidata":"Q2870118","district":"abidjan","region":"da-abidjan"},"geometry":{"type":"Point","coordinates":[-4.18549,5.46739]}},{"type":"Feature","properties":{"id":"niemene","osmId":3088929325,"name":"Niéméné","place":"town","wikidata":"Q3342323","district":"vallee-du-bandama","region":"hambol"},"geometry":{"type":"Point","coordinates":[-4.68874,8.45429]}},{"type":"Feature","properties":{"id":"diafla","osmId":3112520640,"name":"Diafla","place":"town","district":"sassandra-marahoue","region":"haut-sassandra"},"geometry":{"type":"Point","coordinates":[-6.86698,7.42129]}},{"type":"Feature","properties":{"id":"grosso-ancien-prozi","osmId":3139825913,"name":"Grosso (Ancien Prozi)","place":"town","wikidata":"Q2845764","district":"sassandra-marahoue","region":"haut-sassandra"},"geometry":{"type":"Point","coordinates":[-6.96854,7.6716]}},{"type":"Feature","properties":{"id":"vaou","osmId":3141965342,"name":"Vaou","place":"town","wikidata":"Q3554648","district":"sassandra-marahoue","region":"haut-sassandra"},"geometry":{"type":"Point","coordinates":[-6.99153,7.44311]}},{"type":"Feature","properties":{"id":"kadarvogo","osmId":3910528101,"name":"Kadarvogo","place":"town","district":"savanes","region":"tchologo"},"geometry":{"type":"Point","coordinates":[-5.23494,10.31089]}},{"type":"Feature","properties":{"id":"sipilou","osmId":4243497401,"name":"Sipilou","place":"town","district":"montagnes","region":"tonkpi"},"geometry":{"type":"Point","coordinates":[-8.10334,7.86302]}},{"type":"Feature","properties":{"id":"hermankono-garo","osmId":5158009659,"name":"Hermankono Garo","place":"town","wikidata":"Q3134121","district":"goh-djiboua","region":"loh-djiboua"},"geometry":{"type":"Point","coordinates":[-5.01965,5.92691]}},{"type":"Feature","properties":{"id":"goueya","osmId":11385367626,"name":"Gouéya","place":"town","district":"denguele","region":"folon"},"geometry":{"type":"Point","coordinates":[-6.93499,10.31257]}},{"type":"Feature","properties":{"id":"lataha","osmId":11986310212,"name":"Lataha","place":"town","district":"savanes","region":"poro"},"geometry":{"type":"Point","coordinates":[-5.59114,9.5666]}},{"type":"Feature","properties":{"id":"lessiri","osmId":13136746292,"name":"Lessiri","place":"town","district":"bas-sassandra","region":"nawa"},"geometry":{"type":"Point","coordinates":[-6.48916,5.90973]}},{"type":"Feature","properties":{"id":"belleville","osmId":13153833996,"name":"Belleville","place":"town","district":"sassandra-marahoue","region":"haut-sassandra"},"geometry":{"type":"Point","coordinates":[-6.84937,6.87535]}},{"type":"Feature","properties":{"id":"gadouan","osmId":13153834293,"name":"Gadouan","place":"town","district":"sassandra-marahoue","region":"haut-sassandra"},"geometry":{"type":"Point","coordinates":[-6.15424,6.6754]}},{"type":"Feature","properties":{"id":"dadiesso","osmId":13726719035,"name":"Dadiesso","place":"town","district":"comoe","region":"sud-comoe"},"geometry":{"type":"Point","coordinates":[-2.83041,5.50306]}},{"type":"Feature","properties":{"id":"moussue","osmId":13726731044,"name":"Moussue","place":"town","district":"comoe","region":"sud-comoe"},"geometry":{"type":"Point","coordinates":[-2.78922,5.56321]}},{"type":"Feature","properties":{"id":"nyameasa","osmId":13726743841,"name":"Nyameasa","place":"town","district":"comoe","region":"sud-comoe"},"geometry":{"type":"Point","coordinates":[-2.88778,5.46112]}}]}
